[{"OBJECT_NAME":"DMSP 5D-3 F16 (USA 172)","OBJECT_ID":"2003-048A","EPOCH":"2026-03-06T19:38:55.080384","MEAN_MOTION":14.14460837,"ECCENTRICITY":0.0008165,"INCLINATION":98.9996,"RA_OF_ASC_NODE":88.9242,"ARG_OF_PERICENTER":79.8851,"MEAN_ANOMALY":34.1451,"EPHEMERIS_TYPE":0,"CLASSIFICATION_TYPE":"U","NORAD_CAT_ID":28054,"ELEMENT_SET_NO":999,"REV_AT_EPOCH":15501,"BSTAR":0.0001203,"MEAN_MOTION_DOT":1.85e-6,"MEAN_MOTION_DDOT":0},{"OBJECT_NAME":"METEOSAT-9 (MSG-2)","OBJECT_ID":"2005-049B","EPOCH":"2026-03-06T14:10:33.237408","MEAN_MOTION":1.00278557,"ECCENTRICITY":0.00015998,"INCLINATION":9.1298,"RA_OF_ASC_NODE":55.1603,"ARG_OF_PERICENTER":224.1198,"MEAN_ANOMALY":143.4443,"EPHEMERIS_TYPE":0,"CLASSIFICATION_TYPE":"U","NORAD_CAT_ID":28912,"ELEMENT_SET_NO":999,"REV_AT_EPOCH":597,"BSTAR":0,"MEAN_MOTION_DOT":1.22e-6,"MEAN_MOTION_DDOT":0},{"OBJECT_NAME":"DMSP 5D-3 F17 (USA 191)","OBJECT_ID":"2006-050A","EPOCH":"2026-03-06T18:41:27.158784","MEAN_MOTION":14.14962458,"ECCENTRICITY":0.0009932,"INCLINATION":98.7414,"RA_OF_ASC_NODE":74.4331,"ARG_OF_PERICENTER":355.3199,"MEAN_ANOMALY":4.788,"EPHEMERIS_TYPE":0,"CLASSIFICATION_TYPE":"U","NORAD_CAT_ID":29522,"ELEMENT_SET_NO":999,"REV_AT_EPOCH":99793,"BSTAR":0.00015205,"MEAN_MOTION_DOT":2.51e-6,"MEAN_MOTION_DDOT":0},{"OBJECT_NAME":"FENGYUN 3A","OBJECT_ID":"2008-026A","EPOCH":"2026-03-06T13:31:19.064640","MEAN_MOTION":14.19545242,"ECCENTRICITY":0.00097533,"INCLINATION":98.6795,"RA_OF_ASC_NODE":8.3685,"ARG_OF_PERICENTER":66.3473,"MEAN_ANOMALY":293.8727,"EPHEMERIS_TYPE":0,"CLASSIFICATION_TYPE":"U","NORAD_CAT_ID":32958,"ELEMENT_SET_NO":999,"REV_AT_EPOCH":92084,"BSTAR":9.6360478e-5,"MEAN_MOTION_DOT":1.6e-6,"MEAN_MOTION_DDOT":0},{"OBJECT_NAME":"GOES 14","OBJECT_ID":"2009-033A","EPOCH":"2026-03-06T18:20:01.815360","MEAN_MOTION":1.00100447,"ECCENTRICITY":0.0001768,"INCLINATION":1.4253,"RA_OF_ASC_NODE":84.3866,"ARG_OF_PERICENTER":257.0298,"MEAN_ANOMALY":298.4685,"EPHEMERIS_TYPE":0,"CLASSIFICATION_TYPE":"U","NORAD_CAT_ID":35491,"ELEMENT_SET_NO":999,"REV_AT_EPOCH":556,"BSTAR":0,"MEAN_MOTION_DOT":1.21e-6,"MEAN_MOTION_DDOT":0},{"OBJECT_NAME":"DMSP 5D-3 F18 (USA 210)","OBJECT_ID":"2009-057A","EPOCH":"2026-03-06T19:30:33.657120","MEAN_MOTION":14.14833863,"ECCENTRICITY":0.0010963,"INCLINATION":98.8961,"RA_OF_ASC_NODE":46.852,"ARG_OF_PERICENTER":176.4457,"MEAN_ANOMALY":183.6796,"EPHEMERIS_TYPE":0,"CLASSIFICATION_TYPE":"U","NORAD_CAT_ID":35951,"ELEMENT_SET_NO":999,"REV_AT_EPOCH":84511,"BSTAR":0.00020514,"MEAN_MOTION_DOT":3.51e-6,"MEAN_MOTION_DDOT":0},{"OBJECT_NAME":"EWS-G2 (GOES 15)","OBJECT_ID":"2010-008A","EPOCH":"2026-03-06T19:23:40.711776","MEAN_MOTION":1.00269857,"ECCENTRICITY":0.0002095,"INCLINATION":1.0146,"RA_OF_ASC_NODE":85.1017,"ARG_OF_PERICENTER":17.708,"MEAN_ANOMALY":56.0929,"EPHEMERIS_TYPE":0,"CLASSIFICATION_TYPE":"U","NORAD_CAT_ID":36411,"ELEMENT_SET_NO":999,"REV_AT_EPOCH":5861,"BSTAR":0,"MEAN_MOTION_DOT":1.8e-7,"MEAN_MOTION_DDOT":0},{"OBJECT_NAME":"COMS 1","OBJECT_ID":"2010-032A","EPOCH":"2026-03-06T09:17:38.863104","MEAN_MOTION":1.00271769,"ECCENTRICITY":0.00012474,"INCLINATION":4.5407,"RA_OF_ASC_NODE":76.8433,"ARG_OF_PERICENTER":292.8421,"MEAN_ANOMALY":62.0076,"EPHEMERIS_TYPE":0,"CLASSIFICATION_TYPE":"U","NORAD_CAT_ID":36744,"ELEMENT_SET_NO":999,"REV_AT_EPOCH":5005,"BSTAR":0,"MEAN_MOTION_DOT":-3.47e-6,"MEAN_MOTION_DDOT":0},{"OBJECT_NAME":"FENGYUN 3B","OBJECT_ID":"2010-059A","EPOCH":"2026-03-06T20:11:14.676576","MEAN_MOTION":14.14817356,"ECCENTRICITY":0.0023025,"INCLINATION":98.9768,"RA_OF_ASC_NODE":111.3587,"ARG_OF_PERICENTER":115.906,"MEAN_ANOMALY":353.7863,"EPHEMERIS_TYPE":0,"CLASSIFICATION_TYPE":"U","NORAD_CAT_ID":37214,"ELEMENT_SET_NO":999,"REV_AT_EPOCH":79295,"BSTAR":0.00018432,"MEAN_MOTION_DOT":3.11e-6,"MEAN_MOTION_DDOT":0},{"OBJECT_NAME":"SUOMI NPP","OBJECT_ID":"2011-061A","EPOCH":"2026-03-06T20:28:50.220192","MEAN_MOTION":14.19542599,"ECCENTRICITY":4.03e-5,"INCLINATION":98.7867,"RA_OF_ASC_NODE":7.4786,"ARG_OF_PERICENTER":256.6825,"MEAN_ANOMALY":103.4306,"EPHEMERIS_TYPE":0,"CLASSIFICATION_TYPE":"U","NORAD_CAT_ID":37849,"ELEMENT_SET_NO":999,"REV_AT_EPOCH":74392,"BSTAR":8.3832e-5,"MEAN_MOTION_DOT":1.32e-6,"MEAN_MOTION_DDOT":0},{"OBJECT_NAME":"METEOSAT-10 (MSG-3)","OBJECT_ID":"2012-035B","EPOCH":"2026-03-06T19:05:34.948032","MEAN_MOTION":1.00267966,"ECCENTRICITY":0.000249,"INCLINATION":4.4292,"RA_OF_ASC_NODE":61.4529,"ARG_OF_PERICENTER":283.3598,"MEAN_ANOMALY":106.334,"EPHEMERIS_TYPE":0,"CLASSIFICATION_TYPE":"U","NORAD_CAT_ID":38552,"ELEMENT_SET_NO":999,"REV_AT_EPOCH":4983,"BSTAR":0,"MEAN_MOTION_DOT":-8.0e-8,"MEAN_MOTION_DDOT":0},{"OBJECT_NAME":"METOP-B","OBJECT_ID":"2012-049A","EPOCH":"2026-03-06T18:29:02.818464","MEAN_MOTION":14.21443683,"ECCENTRICITY":0.0001184,"INCLINATION":98.6648,"RA_OF_ASC_NODE":119.2501,"ARG_OF_PERICENTER":281.9884,"MEAN_ANOMALY":78.1161,"EPHEMERIS_TYPE":0,"CLASSIFICATION_TYPE":"U","NORAD_CAT_ID":38771,"ELEMENT_SET_NO":999,"REV_AT_EPOCH":69871,"BSTAR":9.7062e-5,"MEAN_MOTION_DOT":1.69e-6,"MEAN_MOTION_DDOT":0},{"OBJECT_NAME":"INSAT-3D","OBJECT_ID":"2013-038B","EPOCH":"2026-03-06T18:55:38.813952","MEAN_MOTION":1.00272492,"ECCENTRICITY":0.0001687,"INCLINATION":1.6614,"RA_OF_ASC_NODE":83.8811,"ARG_OF_PERICENTER":248.1233,"MEAN_ANOMALY":245.9026,"EPHEMERIS_TYPE":0,"CLASSIFICATION_TYPE":"U","NORAD_CAT_ID":39216,"ELEMENT_SET_NO":999,"REV_AT_EPOCH":4605,"BSTAR":0,"MEAN_MOTION_DOT":-3.42e-6,"MEAN_MOTION_DDOT":0},{"OBJECT_NAME":"FENGYUN 3C","OBJECT_ID":"2013-052A","EPOCH":"2026-03-06T20:22:20.064576","MEAN_MOTION":14.15727926,"ECCENTRICITY":0.0013976,"INCLINATION":98.4888,"RA_OF_ASC_NODE":44.4769,"ARG_OF_PERICENTER":321.8432,"MEAN_ANOMALY":38.1753,"EPHEMERIS_TYPE":0,"CLASSIFICATION_TYPE":"U","NORAD_CAT_ID":39260,"ELEMENT_SET_NO":999,"REV_AT_EPOCH":64408,"BSTAR":0.00010998,"MEAN_MOTION_DOT":1.75e-6,"MEAN_MOTION_DDOT":0},{"OBJECT_NAME":"METEOR-M 2","OBJECT_ID":"2014-037A","EPOCH":"2026-03-06T20:49:29.590176","MEAN_MOTION":14.21426377,"ECCENTRICITY":0.0005511,"INCLINATION":98.5024,"RA_OF_ASC_NODE":45.2831,"ARG_OF_PERICENTER":346.2476,"MEAN_ANOMALY":13.8551,"EPHEMERIS_TYPE":0,"CLASSIFICATION_TYPE":"U","NORAD_CAT_ID":40069,"ELEMENT_SET_NO":999,"REV_AT_EPOCH":60478,"BSTAR":-6.3933e-6,"MEAN_MOTION_DOT":-5.6e-7,"MEAN_MOTION_DDOT":0},{"OBJECT_NAME":"HIMAWARI-8","OBJECT_ID":"2014-060A","EPOCH":"2026-03-05T23:13:24.936672","MEAN_MOTION":1.00271621,"ECCENTRICITY":7.206e-5,"INCLINATION":0.0252,"RA_OF_ASC_NODE":238.2083,"ARG_OF_PERICENTER":99.4681,"MEAN_ANOMALY":315.0191,"EPHEMERIS_TYPE":0,"CLASSIFICATION_TYPE":"U","NORAD_CAT_ID":40267,"ELEMENT_SET_NO":999,"REV_AT_EPOCH":4172,"BSTAR":0,"MEAN_MOTION_DOT":-2.82e-6,"MEAN_MOTION_DDOT":0},{"OBJECT_NAME":"FENGYUN 2G","OBJECT_ID":"2014-090A","EPOCH":"2026-03-06T12:43:12.279072","MEAN_MOTION":1.00273916,"ECCENTRICITY":0.00016863,"INCLINATION":5.3795,"RA_OF_ASC_NODE":74.0622,"ARG_OF_PERICENTER":150.5335,"MEAN_ANOMALY":230.1497,"EPHEMERIS_TYPE":0,"CLASSIFICATION_TYPE":"U","NORAD_CAT_ID":40367,"ELEMENT_SET_NO":999,"REV_AT_EPOCH":4097,"BSTAR":0,"MEAN_MOTION_DOT":-3.05e-6,"MEAN_MOTION_DDOT":0}]
